{"type": "FeatureCollection", "features": [{"type": "Feature", "properties": {"norad_id": 66549, "name": "SHIJIAN-28 (SJ-28)", "group": "last-30-days", "lat": 4.675824520967481, "lon": 25.447940602995562, "alt_km": 35783.396003406444, "timestamp": "2025-12-25T11:37:43.131112+00:00", "meta": {"OBJECT_NAME": "SHIJIAN-28 (SJ-28)", "OBJECT_ID": "2025-277A", "EPOCH": "2025-12-24T22:54:51.916320", "MEAN_MOTION": 1.00265231, "ECCENTRICITY": 9.99e-05, "INCLINATION": 4.9886, "RA_OF_ASC_NODE": 274.7645, "ARG_OF_PERICENTER": 128.3669, "MEAN_ANOMALY": 151.0393, "EPHEMERIS_TYPE": 0, "CLASSIFICATION_TYPE": "U", "NORAD_CAT_ID": 66549, "ELEMENT_SET_NO": 999, "REV_AT_EPOCH": 40, "BSTAR": 0, "MEAN_MOTION_DOT": -3.37e-06, "MEAN_MOTION_DDOT": 0}, "tle": {"line1": "1 66549U 25277A   25358.95476755 -.00000337  00000+0  00000+0 0  9996", "line2": "2 66549   4.9886 274.7645 0000999 128.3669 151.0393  1.00265231   400"}}, "geometry": {"type": "Point", "coordinates": [25.447940602995562, 4.675824520967481]}}, {"type": "Feature", "properties": {"norad_id": 66550, "name": "CZ-7A R/B", "group": "last-30-days", "lat": -4.289026851687672, "lon": -114.70594819520758, "alt_km": 13645.141007790935, "timestamp": "2025-12-25T11:37:43.131161+00:00", "meta": {"OBJECT_NAME": "CZ-7A R/B", "OBJECT_ID": "2025-277B", "EPOCH": "2025-12-23T05:53:12.433056", "MEAN_MOTION": 3.27661077, "ECCENTRICITY": 0.66094342, "INCLINATION": 14.3426, "RA_OF_ASC_NODE": 263.9223, "ARG_OF_PERICENTER": 200.4471, "MEAN_ANOMALY": 110.5172, "EPHEMERIS_TYPE": 0, "CLASSIFICATION_TYPE": "U", "NORAD_CAT_ID": 66550, "ELEMENT_SET_NO": 999, "REV_AT_EPOCH": 65, "BSTAR": 0.0068493476, "MEAN_MOTION_DOT": 0.10979967, "MEAN_MOTION_DDOT": 1.8894821e-05}, "tle": {"line1": "1 66550U 25277B   25357.24528279  .10979967  18895-4  68493-2 0  9991", "line2": "2 66550  14.3426 263.9223 6609434 200.4471 110.5172  3.27661077   658"}}, "geometry": {"type": "Point", "coordinates": [-114.70594819520758, -4.289026851687672]}}, {"type": "Feature", "properties": {"norad_id": 66554, "name": "GLOBAL-33", "group": "last-30-days", "lat": -26.27011874916485, "lon": -163.34761310462608, "alt_km": 470.48788428986245, "timestamp": "2025-12-25T11:37:43.131194+00:00", "meta": {"OBJECT_NAME": "GLOBAL-33", "OBJECT_ID": "2025-267A", "EPOCH": "2025-12-24T20:34:58.688544", "MEAN_MOTION": 15.31743284, "ECCENTRICITY": 0.00046584, "INCLINATION": 42.0212, "RA_OF_ASC_NODE": 347.033, "ARG_OF_PERICENTER": 176.2786, "MEAN_ANOMALY": 183.8086, "EPHEMERIS_TYPE": 0, "CLASSIFICATION_TYPE": "U", "NORAD_CAT_ID": 66554, "ELEMENT_SET_NO": 999, "REV_AT_EPOCH": 526, "BSTAR": 0.00046763197, "MEAN_MOTION_DOT": 0.00014423, "MEAN_MOTION_DDOT": 0}, "tle": {"line1": "1 66554U 25267A   25358.85762371  .00014423  00000+0  46763-3 0  9992", "line2": "2 66554  42.0212 347.0330 0004658 176.2786 183.8086 15.31743284  5264"}}, "geometry": {"type": "Point", "coordinates": [-163.34761310462608, -26.27011874916485]}}, {"type": "Feature", "properties": {"norad_id": 66557, "name": "STARLINK-35699", "group": "last-30-days", "lat": 25.057453078891136, "lon": 76.8011167917161, "alt_km": 445.9948471463822, "timestamp": "2025-12-25T11:37:43.131207+00:00", "meta": {"OBJECT_NAME": "STARLINK-35699", "OBJECT_ID": "2025-268A", "EPOCH": "2025-12-25T04:00:01.998720", "MEAN_MOTION": 15.40375705, "ECCENTRICITY": 0.0001741, "INCLINATION": 43.0003, "RA_OF_ASC_NODE": 48.5168, "ARG_OF_PERICENTER": 272.5898, "MEAN_ANOMALY": 162.0552, "EPHEMERIS_TYPE": 0, "CLASSIFICATION_TYPE": "U", "NORAD_CAT_ID": 66557, "ELEMENT_SET_NO": 999, "REV_AT_EPOCH": 615, "BSTAR": -0.05437, "MEAN_MOTION_DOT": -0.0200082, "MEAN_MOTION_DDOT": 0}, "tle": {"line1": "1 66557U 25268A   25359.16668980 -.02000820  00000+0 -54370-1 0  9993", "line2": "2 66557  43.0003  48.5168 0001741 272.5898 162.0552 15.40375705  6157"}}, "geometry": {"type": "Point", "coordinates": [76.8011167917161, 25.057453078891136]}}, {"type": "Feature", "properties": {"norad_id": 66558, "name": "STARLINK-35695", "group": "last-30-days", "lat": 32.36986598251803, "lon": 89.5181333275532, "alt_km": 442.42947037112845, "timestamp": "2025-12-25T11:37:43.131219+00:00", "meta": {"OBJECT_NAME": "STARLINK-35695", "OBJECT_ID": "2025-268B", "EPOCH": "2025-12-25T04:00:01.998720", "MEAN_MOTION": 15.41213768, "ECCENTRICITY": 0.0001574, "INCLINATION": 43.0001, "RA_OF_ASC_NODE": 48.4876, "ARG_OF_PERICENTER": 275.8235, "MEAN_ANOMALY": 171.1924, "EPHEMERIS_TYPE": 0, "CLASSIFICATION_TYPE": "U", "NORAD_CAT_ID": 66558, "ELEMENT_SET_NO": 999, "REV_AT_EPOCH": 615, "BSTAR": -0.052853, "MEAN_MOTION_DOT": -0.02000404, "MEAN_MOTION_DDOT": 0}, "tle": {"line1": "1 66558U 25268B   25359.16668980 -.02000404  00000+0 -52853-1 0  9996", "line2": "2 66558  43.0001  48.4876 0001574 275.8235 171.1924 15.41213768  6151"}}, "geometry": {"type": "Point", "coordinates": [89.5181333275532, 32.36986598251803]}}, {"type": "Feature", "properties": {"norad_id": 66559, "name": "STARLINK-35419", "group": "last-30-days", "lat": 39.3887665334384, "lon": 164.73289067208793, "alt_km": 426.3176005506539, "timestamp": "2025-12-25T11:37:43.131230+00:00", "meta": {"OBJECT_NAME": "STARLINK-35419", "OBJECT_ID": "2025-268C", "EPOCH": "2025-12-25T04:00:01.998720", "MEAN_MOTION": 15.46360508, "ECCENTRICITY": 0.0001131, "INCLINATION": 43.0004, "RA_OF_ASC_NODE": 48.3559, "ARG_OF_PERICENTER": 277.597, "MEAN_ANOMALY": 223.161, "EPHEMERIS_TYPE": 0, "CLASSIFICATION_TYPE": "U", "NORAD_CAT_ID": 66559, "ELEMENT_SET_NO": 999, "REV_AT_EPOCH": 605, "BSTAR": -0.045604, "MEAN_MOTION_DOT": -0.02051901, "MEAN_MOTION_DDOT": 0}, "tle": {"line1": "1 66559U 25268C   25359.16668980 -.02051901  00000+0 -45604-1 0  9991", "line2": "2 66559  43.0004  48.3559 0001131 277.5970 223.1610 15.46360508  6055"}}, "geometry": {"type": "Point", "coordinates": [164.73289067208793, 39.3887665334384]}}, {"type": "Feature", "properties": {"norad_id": 66560, "name": "STARLINK-35411", "group": "last-30-days", "lat": 36.9589270375321, "lon": 172.64678397873377, "alt_km": 425.10239238879694, "timestamp": "2025-12-25T11:37:43.131242+00:00", "meta": {"OBJECT_NAME": "STARLINK-35411", "OBJECT_ID": "2025-268D", "EPOCH": "2025-12-25T04:00:01.998720", "MEAN_MOTION": 15.46887345, "ECCENTRICITY": 0.0001118, "INCLINATION": 43.0005, "RA_OF_ASC_NODE": 48.3409, "ARG_OF_PERICENTER": 277.8994, "MEAN_ANOMALY": 228.9321, "EPHEMERIS_TYPE": 0, "CLASSIFICATION_TYPE": "U", "NORAD_CAT_ID": 66560, "ELEMENT_SET_NO": 999, "REV_AT_EPOCH": 615, "BSTAR": -0.044608, "MEAN_MOTION_DOT": -0.02045208, "MEAN_MOTION_DDOT": 0}, "tle": {"line1": "1 66560U 25268D   25359.16668980 -.02045208  00000+0 -44608-1 0  9999", "line2": "2 66560  43.0005  48.3409 0001118 277.8994 228.9321 15.46887345  6152"}}, "geometry": {"type": "Point", "coordinates": [172.64678397873377, 36.9589270375321]}}, {"type": "Feature", "properties": {"norad_id": 66561, "name": "STARLINK-35305", "group": "last-30-days", "lat": 28.52447955160755, "lon": -169.22824884507162, "alt_km": 421.35830327911026, "timestamp": "2025-12-25T11:37:43.131253+00:00", "meta": {"OBJECT_NAME": "STARLINK-35305", "OBJECT_ID": "2025-268E", "EPOCH": "2025-12-25T04:00:01.998720", "MEAN_MOTION": 15.48564481, "ECCENTRICITY": 0.0001014, "INCLINATION": 43.0005, "RA_OF_ASC_NODE": 48.3029, "ARG_OF_PERICENTER": 277.0644, "MEAN_ANOMALY": 245.2385, "EPHEMERIS_TYPE": 0, "CLASSIFICATION_TYPE": "U", "NORAD_CAT_ID": 66561, "ELEMENT_SET_NO": 999, "REV_AT_EPOCH": 615, "BSTAR": -0.042168, "MEAN_MOTION_DOT": -0.02050228, "MEAN_MOTION_DDOT": 0}, "tle": {"line1": "1 66561U 25268E   25359.16668980 -.02050228  00000+0 -42168-1 0  9997", "line2": "2 66561  43.0005  48.3029 0001014 277.0644 245.2385 15.48564481  6157"}}, "geometry": {"type": "Point", "coordinates": [-169.22824884507162, 28.52447955160755]}}, {"type": "Feature", "properties": {"norad_id": 66562, "name": "STARLINK-35579", "group": "last-30-days", "lat": 32.933571642545836, "lon": -177.565484336119, "alt_km": 423.23283275732956, "timestamp": "2025-12-25T11:37:43.131264+00:00", "meta": {"OBJECT_NAME": "STARLINK-35579", "OBJECT_ID": "2025-268F", "EPOCH": "2025-12-25T04:00:01.998720", "MEAN_MOTION": 15.47727108, "ECCENTRICITY": 0.0001134, "INCLINATION": 43.0004, "RA_OF_ASC_NODE": 48.3211, "ARG_OF_PERICENTER": 276.2741, "MEAN_ANOMALY": 238.5733, "EPHEMERIS_TYPE": 0, "CLASSIFICATION_TYPE": "U", "NORAD_CAT_ID": 66562, "ELEMENT_SET_NO": 999, "REV_AT_EPOCH": 615, "BSTAR": -0.043422, "MEAN_MOTION_DOT": -0.02049795, "MEAN_MOTION_DDOT": 0}, "tle": {"line1": "1 66562U 25268F   25359.16668980 -.02049795  00000+0 -43422-1 0  9999", "line2": "2 66562  43.0004  48.3211 0001134 276.2741 238.5733 15.47727108  6150"}}, "geometry": {"type": "Point", "coordinates": [-177.565484336119, 32.933571642545836]}}, {"type": "Feature", "properties": {"norad_id": 66563, "name": "STARLINK-35437", "group": "last-30-days", "lat": 23.98372747026047, "lon": -162.0857230712355, "alt_km": 419.29226436669614, "timestamp": "2025-12-25T11:37:43.131274+00:00", "meta": {"OBJECT_NAME": "STARLINK-35437", "OBJECT_ID": "2025-268G", "EPOCH": "2025-12-25T04:00:01.998720", "MEAN_MOTION": 15.49379693, "ECCENTRICITY": 8.14e-05, "INCLINATION": 43.0001, "RA_OF_ASC_NODE": 48.2857, "ARG_OF_PERICENTER": 265.2831, "MEAN_ANOMALY": 263.9321, "EPHEMERIS_TYPE": 0, "CLASSIFICATION_TYPE": "U", "NORAD_CAT_ID": 66563, "ELEMENT_SET_NO": 999, "REV_AT_EPOCH": 605, "BSTAR": -0.040481, "MEAN_MOTION_DOT": -0.02028545, "MEAN_MOTION_DDOT": 0}, "tle": {"line1": "1 66563U 25268G   25359.16668980 -.02028545  00000+0 -40481-1 0  9992", "line2": "2 66563  43.0001  48.2857 0000814 265.2831 263.9321 15.49379693  6053"}}, "geometry": {"type": "Point", "coordinates": [-162.0857230712355, 23.98372747026047]}}]}